<kml xmlns="http://www.opengis.net/kml/2.2"><Document>
<Placemark>
<name>Golders Green Eruv</name><ExtendedData>
  <Data name="marker-color"><value>#7e7e7e</value></Data>
  <Data name="marker-size"><value>medium</value></Data>
  <Data name="marker-symbol"><value>circle</value></Data></ExtendedData>
  <Point><coordinates>-0.20589681325415654,51.57827603435044</coordinates></Point></Placemark>
<Placemark>
<name>Golders Green Eruv</name><ExtendedData>
  <Data name="marker-color"><value>#7e7e7e</value></Data>
  <Data name="marker-size"><value>medium</value></Data>
  <Data name="marker-symbol"><value>circle</value></Data>
  <Data name="stroke"><value>#FF2C2C</value></Data>
  <Data name="stroke-width"><value>5</value></Data></ExtendedData>
  <LineString><coordinates>-0.21135651492841134,51.580808135885775
-0.21133697828898335,51.58063817181457
-0.21135651492841134,51.58084455667537
-0.2099975256386415,51.58466027440116
-0.2095824,51.585667
-0.20905429972256684,51.58661001751295
-0.2086155899944515,51.587100665911464
-0.2080051,51.5871991
-0.2070175,51.5872702
-0.2062417,51.5874173
-0.20568,51.5875628
-0.205798,51.5878149
-0.2052863,51.5880344
-0.2047958,51.5881563
-0.2044524,51.5881624
-0.2039193,51.588203
-0.2034223,51.5883798
-0.2029579,51.5885505
-0.2024003,51.5886995
-0.2017822,51.5887016
-0.2010586,51.5888067
-0.2005092,51.588821
-0.200398,51.5886794
-0.2004013,51.5884133
-0.2003457,51.5883462
-0.2003359,51.5879931
-0.2003209,51.5875434
-0.2004517,51.5868038
-0.2004026,51.5859402
-0.2002718,51.5859179
-0.2002783,51.5854708
-0.2002751,51.5850184
-0.2003012,51.5845481
-0.2002947,51.5841182
-0.2002213,51.5835284
-0.2001036,51.5834674
-0.1999401,51.5830557
-0.1997308,51.5825903
-0.19947667346116305,51.58241729330243
-0.19970481460515543,51.582284112285265
-0.200326,51.581749
-0.1994888,51.5818102
-0.199048,51.5815905
-0.1967657,51.5758655
-0.196612,51.5755754
-0.1969129,51.5752563
-0.1973422,51.5748006
-0.1976616,51.5743073
-0.1981223,51.5739338
-0.1976089,51.5737794
-0.197223,51.5738952
-0.1967488,51.5737367
-0.196945,51.573444
-0.1972446,51.5735035
-0.1976767,51.5735799
-0.1978073,51.5735233
-0.1977111,51.5734175
-0.1976197,51.5733448
-0.1974976,51.5733993
-0.1960976,51.5726956
-0.1960938,51.5725009
-0.19619116250132151,51.57205845536109
-0.1962647,51.571857
-0.1965346,51.5717139
-0.1965822,51.571627
-0.1968708,51.5711387
-0.1972215,51.5706514
-0.19708940110191975,51.5706288131947
-0.19548600322605125,51.570894917879514
-0.1954205,51.5706327
-0.1958944,51.5705559
-0.1955178,51.5695335
-0.19528,51.5695609
-0.1952134,51.5689549
-0.195092,51.5685417
-0.1953074,51.5683933
-0.1954679,51.5674024
-0.1955854,51.5671856
-0.1957381,51.5669179
-0.19621979798048983,51.56582400331621
-0.197379,51.566056
-0.1976623,51.5655701
-0.1979729,51.5651351
-0.1972812,51.5649765
-0.1965953494963344,51.56486273460584
-0.1969746,51.5638904
-0.1975315,51.5638793
-0.19797492202491185,51.56352507059506
-0.19802306902911937,51.56313597347258
-0.19862009188557295,51.5631456973492
-0.1997808,51.5629839
-0.2042222,51.5677098
-0.2055311,51.567099
-0.2061892,51.5668567
-0.2061663,51.5670095
-0.207535,51.5688574
-0.2072147,51.5689438
-0.2077184,51.569559
-0.2081545,51.5700402
-0.2086255,51.5702801
-0.2086478,51.5704516
-0.2087906,51.5705959
-0.2089481,51.5707544
-0.2090722,51.5708755
-0.2091936,51.5708359
-0.2097777,51.5713862
-0.2096111,51.5714407
-0.2094548,51.5714954
-0.2095554,51.571612
-0.2099128,51.5714935
-0.2102752685369751,51.57188821701192
-0.214074484054521,51.575054953427525
-0.2149353053176526,51.575618105245354
-0.2147972,51.5756856
-0.2149472,51.575737
-0.2150406,51.5757636
-0.2150804,51.5757332
-0.21532048135387072,51.57594789204052
-0.2147908643019889,51.57622916024647
-0.2154651,51.5765486
-0.2147143,51.5769528
-0.2160868,51.5774372
-0.21541,51.5778658
-0.2152279,51.5778686
-0.21509,51.5780017
-0.2149746,51.578063
-0.2150312,51.5781035
-0.2147289,51.5782509
-0.21414879296767708,51.57863589040912
-0.2118666249447756,51.580820032414294
-0.2113466372942412,51.580640517852515</coordinates></LineString></Placemark></Document></kml>