<?xml version="1.0" encoding="UTF-8"?>
<kml xmlns="http://www.opengis.net/kml/2.2">
  <Document>
    <name>Gibraltar Eruv V2.0</name>
    <description>Updated 8/05/2024</description>
    <Style id="line-FF5252-4294-nodesc-normal">
      <LineStyle>
        <color>ff5252ff</color>
        <width>4.294</width>
      </LineStyle>
      <BalloonStyle>
        <text><![CDATA[<h3>$[name]</h3>]]></text>
      </BalloonStyle>
    </Style>
    <Style id="line-FF5252-4294-nodesc-highlight">
      <LineStyle>
        <color>ff5252ff</color>
        <width>6.441</width>
      </LineStyle>
      <BalloonStyle>
        <text><![CDATA[<h3>$[name]</h3>]]></text>
      </BalloonStyle>
    </Style>
    <StyleMap id="line-FF5252-4294-nodesc">
      <Pair>
        <key>normal</key>
        <styleUrl>#line-FF5252-4294-nodesc-normal</styleUrl>
      </Pair>
      <Pair>
        <key>highlight</key>
        <styleUrl>#line-FF5252-4294-nodesc-highlight</styleUrl>
      </Pair>
    </StyleMap>
    <Folder>
      <name>Eruv Border</name>
      <Placemark>
        <name>Border Line</name>
        <styleUrl>#line-FF5252-4294-nodesc</styleUrl>
        <LineString>
          <tessellate>1</tessellate>
          <coordinates>
            -5.3419297,36.1171456,0
            -5.3421557,36.1178684,0
            -5.3424643,36.1180989,0
            -5.3426066,36.1185937,0
            -5.3427598,36.1193798,0
            -5.343192,36.119571,0
            -5.3431869,36.1200742,0
            -5.3430209,36.1209664,0
            -5.3424847,36.1216918,0
            -5.3417334,36.1234841,0
            -5.3412612,36.1247047,0
            -5.3412341,36.1251886,0
            -5.3411586,36.1253463,0
            -5.3409968,36.1255186,0
            -5.340591,36.1257288,0
            -5.3403353,36.1259867,0
            -5.3402786,36.1262988,0
            -5.3403935,36.1266001,0
            -5.3405702,36.1267752,0
            -5.34083,36.1268896,0
            -5.3411564,36.1270838,0
            -5.3413521,36.1273909,0
            -5.3415209,36.1277738,0
            -5.3415864,36.1279217,0
            -5.3416144,36.1280328,0
            -5.3415201,36.1288593,0
            -5.3415368,36.129035,0
            -5.3416689,36.1292214,0
            -5.3417715,36.12931,0
            -5.3418579,36.1294333,0
            -5.3420048,36.1296357,0
            -5.3421248,36.1298597,0
            -5.3420986,36.1301428,0
            -5.3420563,36.130558,0
            -5.3419718,36.1305522,0
            -5.3419623,36.1298744,0
            -5.341824,36.1298746,0
            -5.3417851,36.1303698,0
            -5.3417552,36.1305564,0
            -5.3416932,36.130561,0
            -5.3416603,36.1308562,0
            -5.3417889,36.130928,0
            -5.3414199,36.1320008,0
            -5.3411287,36.1325646,0
            -5.3410626,36.132844,0
            -5.3409928,36.1331421,0
            -5.3409819,36.1334488,0
            -5.3410488,36.133757,0
            -5.3410431,36.1340179,0
            -5.3409295,36.1345676,0
            -5.3407588,36.1347482,0
            -5.3408939,36.1352407,0
            -5.3408545,36.1357335,0
            -5.3409279,36.136015,0
            -5.3410066,36.1363291,0
            -5.3409433,36.1366819,0
            -5.3409712,36.1370434,0
            -5.3408093,36.1371442,0
            -5.3410229,36.1375417,0
            -5.341494,36.1380973,0
            -5.3415843,36.1384232,0
            -5.3415538,36.1392516,0
            -5.340583,36.140567,0
            -5.340402,36.1409066,0
            -5.3399877,36.1414152,0
            -5.339867,36.1418047,0
            -5.3398456,36.1422201,0
            -5.3398906,36.1429211,0
            -5.3399623,36.1436198,0
            -5.3403647,36.1441823,0
            -5.3393816,36.1445699,0
            -5.3388291,36.144848,0
            -5.338805,36.145267,0
            -5.3391758,36.145277,0
            -5.3394876,36.1452676,0
            -5.3400066,36.1453237,0
            -5.3401983,36.1454328,0
            -5.3403165,36.1455637,0
            -5.3403743,36.1456274,0
            -5.3405038,36.1456581,0
            -5.3404563,36.1457267,0
            -5.3405185,36.1457574,0
            -5.340545,36.1457051,0
            -5.3406319,36.1456506,0
            -5.3407241,36.145646,0
            -5.3408602,36.1456692,0
            -5.3409641,36.145792,0
            -5.3409561,36.1460538,0
            -5.3405913,36.147017,0
            -5.3403999,36.1483033,0
            -5.3400851,36.1493687,0
            -5.3402986,36.1494169,0
            -5.3405496,36.1485944,0
            -5.3407377,36.1474842,0
            -5.3428486,36.1476924,0
            -5.3432295,36.1478961,0
            -5.3433426,36.1479968,0
            -5.343528,36.1480303,0
            -5.3432445,36.1502155,0
            -5.3441314,36.150444,0
            -5.3449324,36.1505684,0
            -5.3453032,36.1505361,0
            -5.3456901,36.1504519,0
            -5.346042,36.1501922,0
            -5.3462277,36.1498675,0
            -5.3468846,36.1485341,0
            -5.3488931,36.1492353,0
            -5.3486696,36.1499077,0
            -5.3490295,36.1499763,0
            -5.3492749,36.1500088,0
            -5.3494881,36.1504745,0
            -5.353128,36.1503453,0
            -5.3529724,36.1484583,0
            -5.3531183,36.1485035,0
            -5.3540366,36.1487199,0
            -5.3551303,36.1489489,0
            -5.3551557,36.1498445,0
            -5.3567439,36.1498475,0
            -5.3571213,36.1498501,0
            -5.3571238,36.1497726,0
            -5.3571102,36.1497312,0
            -5.356745,36.1497353,0
            -5.3567101,36.1494035,0
            -5.3558659,36.1494101,0
            -5.3558504,36.1490237,0
            -5.3545039,36.1487345,0
            -5.3547668,36.1486955,0
            -5.3546555,36.1485986,0
            -5.3544543,36.1485211,0
            -5.3545777,36.1483392,0
            -5.3546783,36.1483533,0
            -5.3547399,36.14818,0
            -5.3545791,36.1483132,0
            -5.3542719,36.1481589,0
            -5.3539306,36.1478987,0
            -5.3539889,36.147853,0
            -5.3537918,36.1477,0
            -5.3536188,36.1475405,0
            -5.3539031,36.1473754,0
            -5.3542411,36.1476104,0
            -5.3541069,36.1471296,0
            -5.3544503,36.1473786,0
            -5.3543115,36.146861,0
            -5.3543832,36.1468058,0
            -5.354976,36.1473613,0
            -5.3553428,36.1476672,0
            -5.3556322,36.1479182,0
            -5.3557467,36.1480128,0
            -5.3557769,36.147995,0
            -5.3557847,36.1479921,0
            -5.3558343,36.1480349,0
            -5.356698,36.1487886,0
            -5.3586077,36.149172,0
            -5.3586855,36.1489153,0
            -5.3581195,36.1488011,0
            -5.3583113,36.1480336,0
            -5.3587411,36.1481632,0
            -5.3587501,36.1482338,0
            -5.3588687,36.1483011,0
            -5.3589327,36.1483931,0
            -5.3589527,36.1490112,0
            -5.3598168,36.1490094,0
            -5.359804,36.1485,0
            -5.3601305,36.1485066,0
            -5.3601413,36.148986,0
            -5.3608228,36.1489427,0
            -5.3609998,36.1489717,0
            -5.3609167,36.149032,0
            -5.3610133,36.1490228,0
            -5.3611019,36.1491154,0
            -5.3611355,36.1485945,0
            -5.3611289,36.1484569,0
            -5.3613509,36.1482958,0
            -5.3609707,36.1483049,0
            -5.3600615,36.1481578,0
            -5.3590556,36.1479806,0
            -5.3591441,36.1479589,0
            -5.3590342,36.1478918,0
            -5.3593096,36.1473542,0
            -5.3594306,36.147317,0
            -5.3595248,36.1472258,0
            -5.359579,36.1470086,0
            -5.3596198,36.1468834,0
            -5.3596339,36.146754,0
            -5.3596183,36.1464794,0
            -5.3598337,36.1464448,0
            -5.3604993,36.1464319,0
            -5.3608341,36.1464324,0
            -5.3609982,36.1464333,0
            -5.3611781,36.1464385,0
            -5.3611904,36.146466,0
            -5.3613029,36.1464662,0
            -5.3614061,36.1464556,0
            -5.3615072,36.1464205,0
            -5.3615604,36.1463797,0
            -5.3615754,36.1463335,0
            -5.3615792,36.1451845,0
            -5.3615744,36.144895,0
            -5.3615664,36.1446261,0
            -5.3615783,36.1432979,0
            -5.3615518,36.1432145,0
            -5.360785,36.1429362,0
            -5.3605346,36.1428345,0
            -5.3598061,36.1423699,0
            -5.3592654,36.1418619,0
            -5.3587072,36.1410724,0
            -5.3584898,36.1410557,0
            -5.3578527,36.1412834,0
            -5.3577353,36.141019,0
            -5.3577334,36.1410107,0
            -5.3580419,36.1408917,0
            -5.3583854,36.1405675,0
            -5.3582488,36.1401358,0
            -5.3578239,36.1397163,0
            -5.3575622,36.1391405,0
            -5.3584203,36.138864,0
            -5.358262,36.1383406,0
            -5.3584155,36.1382651,0
            -5.3583795,36.1381798,0
            -5.3596517,36.1378035,0
            -5.3610308,36.1409317,0
            -5.3603041,36.1411506,0
            -5.3603645,36.1412947,0
            -5.3612745,36.1410245,0
            -5.3597652,36.1376265,0
            -5.3583201,36.1380471,0
            -5.3576351,36.1365331,0
            -5.3567991,36.1367336,0
            -5.3576685,36.1383783,0
            -5.3567058,36.1386375,0
            -5.3559723,36.1369475,0
            -5.3556431,36.1370209,0
            -5.3554651,36.1365811,0
            -5.3567226,36.1362139,0
            -5.3566218,36.1359089,0
            -5.3553429,36.1362417,0
            -5.3545104,36.1342548,0
            -5.3566261,36.1336686,0
            -5.3567291,36.1339734,0
            -5.3563193,36.1341085,0
            -5.3571121,36.1357661,0
            -5.3569399,36.1359536,0
            -5.3570684,36.1360214,0
            -5.3576262,36.1357997,0
            -5.357669,36.1356282,0
            -5.3569019,36.1339958,0
            -5.356588,36.1333615,0
            -5.3562266,36.1334639,0
            -5.3547708,36.133887,0
            -5.3545542,36.1334457,0
            -5.3539309,36.1336172,0
            -5.3532277,36.1324942,0
            -5.3531604,36.1318503,0
            -5.3531723,36.1315847,0
            -5.353468,36.130568,0
            -5.355083,36.1301073,0
            -5.3540343,36.1276239,0
            -5.3560689,36.1263042,0
            -5.3567643,36.1258654,0
            -5.3557602,36.1248876,0
            -5.3545501,36.1240651,0
            -5.3543848,36.123513,0
            -5.3542003,36.1228427,0
            -5.3543548,36.1225681,0
            -5.3537239,36.1222359,0
            -5.35343,36.1225074,0
            -5.3528243,36.1227125,0
            -5.352441,36.1224511,0
            -5.3520563,36.1223593,0
            -5.3517995,36.1217328,0
            -5.3522988,36.1216666,0
            -5.3525645,36.1211915,0
            -5.3531158,36.1210752,0
            -5.3538045,36.1214938,0
            -5.3538806,36.1214301,0
            -5.3531891,36.1209649,0
            -5.352441,36.1205719,0
            -5.352244,36.1200332,0
            -5.3518558,36.1198201,0
            -5.3514418,36.1199519,0
            -5.3512777,36.1198531,0
            -5.3509435,36.1197171,0
            -5.3505511,36.1200802,0
            -5.3500733,36.1196898,0
            -5.3505479,36.1183072,0
            -5.349849,36.1171653,0
            -5.349049,36.1166419,0
            -5.3485069,36.1157389,0
            -5.3484289,36.1149971,0
            -5.3486548,36.11457,0
            -5.3495567,36.1141343,0
            -5.350311,36.1125848,0
            -5.3502107,36.1115262,0
            -5.3496349,36.1107412,0
            -5.3484028,36.1105177,0
            -5.3466924,36.1093528,0
            -5.3461294,36.1089131,0
            -5.3456897,36.1089112,0
            -5.3456382,36.1092769,0
            -5.3446253,36.109527,0
            -5.3447068,36.1099157,0
            -5.3450006,36.1103091,0
            -5.3448989,36.1120557,0
            -5.343735,36.1128921,0
            -5.3435208,36.1134729,0
            -5.3432641,36.1156485,0
            -5.3427579,36.1165271,0
            -5.3419297,36.1171456,0
          </coordinates>
        </LineString>
      </Placemark>
    </Folder>
    <Folder>
      <name>Untitled layer</name>
    </Folder>
    <Folder>
      <name>Untitled layer</name>
    </Folder>
    <Folder>
      <name>Untitled layer</name>
    </Folder>
    <Folder>
      <name>Untitled layer</name>
    </Folder>
  </Document>
</kml>
