<kml xmlns="http://www.opengis.net/kml/2.2"><Document>
<Placemark>
<ExtendedData></ExtendedData>
  <LineString><coordinates>-0.07249819338412067,51.5799549117273
-0.07280238829517316,51.57842685828717
-0.07285307766971982,51.57778102189744
-0.0721180131947392,51.57560741875153
-0.07206733782496144,51.575134989119675
-0.0720673445160287,51.57496177580188
-0.06775845147555515,51.57544987530389
-0.066796069644397,51.5728357823331
-0.06324569184900497,51.57076918337165
-0.06047942958335284,51.57209199472311
-0.0633203323470184,51.57409352779811
-0.06304131554804826,51.5742983839026
-0.06047931244850702,51.57494457068941
-0.06007342623215095,51.575007625257285
-0.061417565710911504,51.57748181186679
-0.061442894115430136,51.57768668875261
-0.06281207538856393,51.57982995818256
-0.0644861188730772,51.579577443408624
-0.06509520262864044,51.58094732074824
-0.06610952442488838,51.580821070882166
-0.06616020036926784,51.581010169115245
-0.07247315183192882,51.57993878275565</coordinates></LineString></Placemark>
<Placemark id="1">
<name>Stamford Hill Eruv</name><ExtendedData>
  <Data name="marker-color"><value>#7e7e7e</value></Data>
  <Data name="marker-size"><value>medium</value></Data>
  <Data name="marker-symbol"><value>circle</value></Data></ExtendedData>
  <Point><coordinates>-0.0671998882425271,51.57697667620076</coordinates></Point></Placemark></Document></kml>